{
  "norad_id": 63601,
  "name": "SHIYAN-27 OBJECT C",
  "history": [
    {
      "epoch": "2026-04-30T14:41:59.498880Z",
      "apogee_km": 1046.588077195238,
      "perigee_km": 1045.0250401183985,
      "latitude_deg": 9.855116994534055e-06,
      "longitude_deg": 49.562548560611,
      "height_km": 1048.6157345962122,
      "semi_major_axis_km": 7423.943558656818,
      "eccentricity": 0.00010527,
      "inclination_deg": 99.692,
      "raan_deg": 128.6172,
      "arg_perigee_deg": 91.1075,
      "mean_anomaly_deg": 269.0184,
      "mean_motion_rev_day": 13.57221622
    },
    {
      "epoch": "2026-05-02T12:41:59.252064Z",
      "apogee_km": 1046.5868718792344,
      "perigee_km": 1045.024874298737,
      "latitude_deg": 2.290420285786272e-05,
      "longitude_deg": 79.56262198095476,
      "height_km": 1048.627294896058,
      "semi_major_axis_km": 7423.942873088986,
      "eccentricity": 0.0001052,
      "inclination_deg": 99.6928,
      "raan_deg": 130.5054,
      "arg_perigee_deg": 92.0088,
      "mean_anomaly_deg": 268.1171,
      "mean_motion_rev_day": 13.5722181
    },
    {
      "epoch": "2026-05-03T20:32:45.229920Z",
      "apogee_km": 1046.5903176180454,
      "perigee_km": 1045.0208961509506,
      "latitude_deg": -3.63565772274056e-05,
      "longitude_deg": -38.129819030234344,
      "height_km": 1048.621888452253,
      "semi_major_axis_km": 7423.942606884498,
      "eccentricity": 0.0001057,
      "inclination_deg": 99.6927,
      "raan_deg": 131.8124,
      "arg_perigee_deg": 91.6236,
      "mean_anomaly_deg": 268.5023,
      "mean_motion_rev_day": 13.57221883
    },
    {
      "epoch": "2026-05-04T21:18:54.323136Z",
      "apogee_km": 1046.5908484850115,
      "perigee_km": 1045.019942274148,
      "latitude_deg": 4.760975088403342e-05,
      "longitude_deg": -49.66825989697542,
      "height_km": 1048.6097352351285,
      "semi_major_axis_km": 7423.9423953795795,
      "eccentricity": 0.0001058,
      "inclination_deg": 99.6918,
      "raan_deg": 132.8291,
      "arg_perigee_deg": 90.7497,
      "mean_anomaly_deg": 269.3763,
      "mean_motion_rev_day": 13.57221941
    },
    {
      "epoch": "2026-05-05T20:18:54.186336Z",
      "apogee_km": 1046.593562770323,
      "perigee_km": 1045.0167174597627,
      "latitude_deg": 1.8087731533723922e-06,
      "longitude_deg": -34.66826065390283,
      "height_km": 1048.6055484656051,
      "semi_major_axis_km": 7423.942140115042,
      "eccentricity": 0.0001062,
      "inclination_deg": 99.6924,
      "raan_deg": 133.7731,
      "arg_perigee_deg": 90.4627,
      "mean_anomaly_deg": 269.6633,
      "mean_motion_rev_day": 13.57222011
    },
    {
      "epoch": "2026-05-06T21:05:03.266592Z",
      "apogee_km": 1046.591808102231,
      "perigee_km": 1045.0179324257351,
      "latitude_deg": 2.6876486569720006e-05,
      "longitude_deg": -46.20663770080618,
      "height_km": 1048.6171980555184,
      "semi_major_axis_km": 7423.941870263983,
      "eccentricity": 0.000106,
      "inclination_deg": 99.6917,
      "raan_deg": 134.7898,
      "arg_perigee_deg": 91.3296,
      "mean_anomaly_deg": 268.7964,
      "mean_motion_rev_day": 13.57222085
    },
    {
      "epoch": "2026-05-07T20:05:03.124608Z",
      "apogee_km": 1046.5916622213444,
      "perigee_km": 1045.0177865757714,
      "latitude_deg": 2.6965941209435155e-05,
      "longitude_deg": -31.206624288890673,
      "height_km": 1048.6164808236983,
      "semi_major_axis_km": 7423.941724398558,
      "eccentricity": 0.000106,
      "inclination_deg": 99.6925,
      "raan_deg": 135.7338,
      "arg_perigee_deg": 91.29,
      "mean_anomaly_deg": 268.836,
      "mean_motion_rev_day": 13.57222125
    },
    {
      "epoch": "2026-05-08T20:51:12.197952Z",
      "apogee_km": 1046.5912610489377,
      "perigee_km": 1045.0173854884042,
      "latitude_deg": 2.612951444104705e-05,
      "longitude_deg": -42.74496712558614,
      "height_km": 1048.6133913837634,
      "semi_major_axis_km": 7423.941323268671,
      "eccentricity": 0.000106,
      "inclination_deg": 99.6924,
      "raan_deg": 136.7505,
      "arg_perigee_deg": 91.094,
      "mean_anomaly_deg": 269.032,
      "mean_motion_rev_day": 13.57222235
    },
    {
      "epoch": "2026-05-09T05:41:58.296192Z",
      "apogee_km": 1046.5926460686333,
      "perigee_km": 1045.0159494158188,
      "latitude_deg": 3.6937610537649476e-06,
      "longitude_deg": -175.43713814513848,
      "height_km": 1048.6110743491859,
      "semi_major_axis_km": 7423.941297742226,
      "eccentricity": 0.00010619,
      "inclination_deg": 99.6916,
      "raan_deg": 137.1137,
      "arg_perigee_deg": 90.9235,
      "mean_anomaly_deg": 269.2025,
      "mean_motion_rev_day": 13.57222242
    }
  ]
}